*******************************************************************************
Ephemeris / WWW_USER Tue Mar 27 20:02:51 2018 Pasadena, USA      / Horizons    
*******************************************************************************
Target body name: Pluto Barycenter (9)            {source: de433}
Center body name: Solar System Barycenter (0)     {source: DE431mx}
Center-site name: BODY CENTER
*******************************************************************************
Start time      : A.D. 2000-Jan-01 00:00:00.0000 TDB
Stop  time      : A.D. 2010-Jan-01 00:00:00.0000 TDB
Step-size       : 7200 minutes
*******************************************************************************
Center geodetic : 0.00000000,0.00000000,0.0000000 {E-lon(deg),Lat(deg),Alt(km)}
Center cylindric: 0.00000000,0.00000000,0.0000000 {E-lon(deg),Dxy(km),Dz(km)}
Center radii    : (undefined)                                                  
Output units    : AU-D                                                         
Output type     : GEOMETRIC cartesian states
Output format   : 2 (position and velocity)
Reference frame : ICRF/J2000.0                                                 
Coordinate systm: Ecliptic and Mean Equinox of Reference Epoch                 
*******************************************************************************
JDTDB
   X     Y     Z
   VX    VY    VZ
*******************************************************************************
$$SOE
2454484.500000000 = A.D. 2008-Jan-19 00:00:00.0000 TDB 
  -6.542162322208612E-01 -3.119331213104517E+01  3.527112864448556E+00
   3.195617501874507E-03 -6.544500653690112E-04 -8.543315242962730E-04
2454489.500000000 = A.D. 2008-Jan-24 00:00:00.0000 TDB 
  -6.382380668939928E-01 -3.119658064930875E+01  3.522840784955660E+00
   3.195648500404219E-03 -6.529572720745931E-04 -8.545002322144731E-04
2454494.500000000 = A.D. 2008-Jan-29 00:00:00.0000 TDB 
  -6.222597485012211E-01 -3.119984170408650E+01  3.518567862532850E+00
   3.195678728292673E-03 -6.514646711277912E-04 -8.546686962689665E-04
2454499.500000000 = A.D. 2008-Feb-03 00:00:00.0000 TDB 
  -6.062812808948994E-01 -3.120309529634150E+01  3.514294098399344E+00
   3.195708185881051E-03 -6.499722630651589E-04 -8.548369165007850E-04
2454504.500000000 = A.D. 2008-Feb-08 00:00:00.0000 TDB 
  -5.903026679256753E-01 -3.120634142703951E+01  3.510019493774146E+00
   3.195736873510569E-03 -6.484800484226262E-04 -8.550048929510684E-04
2454509.500000000 = A.D. 2008-Feb-13 00:00:00.0000 TDB 
  -5.743239134424898E-01 -3.120958009714898E+01  3.505744049876065E+00
   3.195764791522473E-03 -6.469880277354999E-04 -8.551726256610637E-04
2454514.500000000 = A.D. 2008-Feb-18 00:00:00.0000 TDB 
  -5.583450212925779E-01 -3.121281130764102E+01  3.501467767923697E+00
   3.195791940258045E-03 -6.454962015384084E-04 -8.553401146722684E-04
2454519.500000000 = A.D. 2008-Feb-23 00:00:00.0000 TDB 
  -5.423659953214678E-01 -3.121603505948941E+01  3.497190649135435E+00
   3.195818320058608E-03 -6.440045703658742E-04 -8.555073600264198E-04
2454524.500000000 = A.D. 2008-Feb-28 00:00:00.0000 TDB 
  -5.263868393729811E-01 -3.121925135367060E+01  3.492912694729458E+00
   3.195843931265531E-03 -6.425131347512689E-04 -8.556743617653593E-04
2454529.500000000 = A.D. 2008-Mar-04 00:00:00.0000 TDB 
  -5.104075572892328E-01 -3.122246019116374E+01  3.488633905923734E+00
   3.195868774220228E-03 -6.410218952268812E-04 -8.558411199313032E-04
2454534.500000000 = A.D. 2008-Mar-09 00:00:00.0000 TDB 
  -4.944281529106302E-01 -3.122566157295058E+01  3.484354283936029E+00
   3.195892849264165E-03 -6.395308523242864E-04 -8.560076345666233E-04
2454539.500000000 = A.D. 2008-Mar-14 00:00:00.0000 TDB 
  -4.784486300758733E-01 -3.122885550001557E+01  3.480073829983884E+00
   3.195916156738854E-03 -6.380400065743452E-04 -8.561739057138463E-04
2454544.500000000 = A.D. 2008-Mar-19 00:00:00.0000 TDB 
  -4.624689926219544E-01 -3.123204197334579E+01  3.475792545284631E+00
   3.195938696985853E-03 -6.365493585072046E-04 -8.563399334156545E-04
2454549.500000000 = A.D. 2008-Mar-24 00:00:00.0000 TDB 
  -4.464892443841580E-01 -3.123522099393099E+01  3.471510431055399E+00
   3.195960470346810E-03 -6.350589086527203E-04 -8.565057177150909E-04
2454554.500000000 = A.D. 2008-Mar-29 00:00:00.0000 TDB 
  -4.305093891960601E-01 -3.123839256276356E+01  3.467227488513082E+00
   3.195981477163491E-03 -6.335686575391290E-04 -8.566712586550509E-04
2454559.500000000 = A.D. 2008-Apr-03 00:00:00.0000 TDB 
  -4.145294308895272E-01 -3.124155668083850E+01  3.462943718874375E+00
   3.196001717777756E-03 -6.320786056941452E-04 -8.568365562790940E-04
2454564.500000000 = A.D. 2008-Apr-08 00:00:00.0000 TDB 
  -3.985493732947165E-01 -3.124471334915348E+01  3.458659123355743E+00
   3.196021192531647E-03 -6.305887536445941E-04 -8.570016106309327E-04
2454569.500000000 = A.D. 2008-Apr-13 00:00:00.0000 TDB 
  -3.825692202400743E-01 -3.124786256870881E+01  3.454373703173445E+00
   3.196039901767385E-03 -6.290991019164102E-04 -8.571664217544332E-04
2454574.500000000 = A.D. 2008-Apr-18 00:00:00.0000 TDB 
  -3.665889755523355E-01 -3.125100434050740E+01  3.450087459543506E+00
   3.196057845827374E-03 -6.276096510346384E-04 -8.573309896936145E-04
2454579.500000000 = A.D. 2008-Apr-23 00:00:00.0000 TDB 
  -3.506086430565225E-01 -3.125413866555478E+01  3.445800393681744E+00
   3.196075025054217E-03 -6.261204015234588E-04 -8.574953144926855E-04
2454584.500000000 = A.D. 2008-Apr-28 00:00:00.0000 TDB 
  -3.346282265759439E-01 -3.125726554485912E+01  3.441512506803739E+00
   3.196091439790721E-03 -6.246313539070273E-04 -8.576593961963618E-04
2454589.500000000 = A.D. 2008-May-03 00:00:00.0000 TDB 
  -3.186477299321943E-01 -3.126038497943121E+01  3.437223800124864E+00
   3.196107090379843E-03 -6.231425087084544E-04 -8.578232348491666E-04
2454594.500000000 = A.D. 2008-May-08 00:00:00.0000 TDB 
  -3.026671569451527E-01 -3.126349697028444E+01  3.432934274860260E+00
   3.196121977164686E-03 -6.216538664499555E-04 -8.579868304958593E-04
2454599.500000000 = A.D. 2008-May-13 00:00:00.0000 TDB 
  -2.866865114329825E-01 -3.126660151843482E+01  3.428643932224841E+00
   3.196136100488501E-03 -6.201654276529919E-04 -8.581501831815374E-04
2454604.500000000 = A.D. 2008-May-18 00:00:00.0000 TDB 
  -2.707057972121304E-01 -3.126969862490094E+01  3.424352773433301E+00
   3.196149460694687E-03 -6.186771928382709E-04 -8.583132929516342E-04
2454609.500000000 = A.D. 2008-May-23 00:00:00.0000 TDB 
  -2.547250180973258E-01 -3.127278829070403E+01  3.420060799700108E+00
   3.196162058126787E-03 -6.171891625259277E-04 -8.584761598518204E-04
2454614.500000000 = A.D. 2008-May-28 00:00:00.0000 TDB 
  -2.387441779015800E-01 -3.127587051686790E+01  3.415768012239492E+00
   3.196173893128449E-03 -6.157013372361646E-04 -8.586387839272266E-04
2454619.500000000 = A.D. 2008-Jun-02 00:00:00.0000 TDB 
  -2.227632804361858E-01 -3.127894530441896E+01  3.411474412265466E+00
   3.196184966043429E-03 -6.142137174875102E-04 -8.588011652238006E-04
2454624.500000000 = A.D. 2008-Jun-07 00:00:00.0000 TDB 
  -2.067823295107171E-01 -3.128201265438621E+01  3.407180000991808E+00
   3.196195277215552E-03 -6.127263037982794E-04 -8.589633037875966E-04
2454629.500000000 = A.D. 2008-Jun-12 00:00:00.0000 TDB 
  -1.908013289330286E-01 -3.128507256780124E+01  3.402884779632068E+00
   3.196204826988686E-03 -6.112390966859464E-04 -8.591251996648522E-04
2454634.500000000 = A.D. 2008-Jun-17 00:00:00.0000 TDB 
  -1.748202825092554E-01 -3.128812504569822E+01  3.398588749399559E+00
   3.196213615706737E-03 -6.097520966671452E-04 -8.592868529019894E-04
2454639.500000000 = A.D. 2008-Jun-22 00:00:00.0000 TDB 
  -1.588391940438131E-01 -3.129117008911392E+01  3.394291911507369E+00
   3.196221643713656E-03 -6.082653042576696E-04 -8.594482635456150E-04
2454644.500000000 = A.D. 2008-Jun-27 00:00:00.0000 TDB 
  -1.428580673393974E-01 -3.129420769908768E+01  3.389994267168348E+00
   3.196228911353416E-03 -6.067787199722193E-04 -8.596094316427365E-04
2454649.500000000 = A.D. 2008-Jul-02 00:00:00.0000 TDB 
  -1.268769061969841E-01 -3.129723787666139E+01  3.385695817595110E+00
   3.196235418970057E-03 -6.052923443261991E-04 -8.597703572398844E-04
2454654.500000000 = A.D. 2008-Jul-07 00:00:00.0000 TDB 
  -1.108957144158286E-01 -3.130026062287953E+01  3.381396564000037E+00
   3.196241166907650E-03 -6.038061778324780E-04 -8.599310403845104E-04
2454659.500000000 = A.D. 2008-Jul-12 00:00:00.0000 TDB 
  -9.491449579346574E-02 -3.130327593878915E+01  3.377096507595272E+00
   3.196246155510381E-03 -6.023202210029647E-04 -8.600914811242937E-04
2454664.500000000 = A.D. 2008-Jul-17 00:00:00.0000 TDB 
  -7.893325412570906E-02 -3.130628382543985E+01  3.372795649592721E+00
   3.196250385122562E-03 -6.008344743488409E-04 -8.602516795070274E-04
2454669.500000000 = A.D. 2008-Jul-22 00:00:00.0000 TDB 
  -6.295199320665032E-02 -3.130928428388378E+01  3.368493991204051E+00
   3.196253856088624E-03 -5.993489383805608E-04 -8.604116355806163E-04
2454674.500000000 = A.D. 2008-Jul-27 00:00:00.0000 TDB 
  -4.697071682865877E-02 -3.131227731517565E+01  3.364191533640684E+00
   3.196256568753129E-03 -5.978636136080424E-04 -8.605713493929760E-04
2454679.500000000 = A.D. 2008-Aug-01 00:00:00.0000 TDB 
  -3.098942878238040E-02 -3.131526292037270E+01  3.359888278113809E+00
   3.196258523460815E-03 -5.963785005393534E-04 -8.607308209929439E-04
2454684.500000000 = A.D. 2008-Aug-06 00:00:00.0000 TDB 
  -1.500813285673721E-02 -3.131824110053472E+01  3.355584225834361E+00
   3.196259720556553E-03 -5.948935996817883E-04 -8.608900504293541E-04
2454689.500000000 = A.D. 2008-Aug-11 00:00:00.0000 TDB 
   9.731671610736921E-04 -3.132121185672404E+01  3.351279378013040E+00
   3.196260160385436E-03 -5.934089115421621E-04 -8.610490377509071E-04
